[{"OBJECT_NAME":"STARLINK-1660","OBJECT_ID":"2020-070AU","EPOCH":"2025-09-13T07:39:53.395200","MEAN_MOTION":16.17993007,"ECCENTRICITY":0.0004904,"INCLINATION":53.0185,"RA_OF_ASC_NODE":164.1713,"ARG_OF_PERICENTER":189.7796,"MEAN_ANOMALY":170.3146,"EPHEMERIS_TYPE":0,"CLASSIFICATION_TYPE":"U","NORAD_CAT_ID":46574,"ELEMENT_SET_NO":999,"REV_AT_EPOCH":27401,"BSTAR":0.0010948,"MEAN_MOTION_DOT":0.01759839,"MEAN_MOTION_DDOT":0.0030527},{"OBJECT_NAME":"STARLINK-1675","OBJECT_ID":"2020-070AV","EPOCH":"2025-09-12T17:59:47.554080","MEAN_MOTION":15.62833023,"ECCENTRICITY":0.0004505,"INCLINATION":53.0445,"RA_OF_ASC_NODE":166.9497,"ARG_OF_PERICENTER":112.133,"MEAN_ANOMALY":248.0162,"EPHEMERIS_TYPE":0,"CLASSIFICATION_TYPE":"U","NORAD_CAT_ID":46575,"ELEMENT_SET_NO":999,"REV_AT_EPOCH":27392,"BSTAR":0.001014066,"MEAN_MOTION_DOT":0.00093717,"MEAN_MOTION_DDOT":0},{"OBJECT_NAME":"STARLINK-1677","OBJECT_ID":"2020-070AW","EPOCH":"2025-09-13T05:59:23.205696","MEAN_MOTION":15.06373072,"ECCENTRICITY":0.00013964,"INCLINATION":53.0538,"RA_OF_ASC_NODE":238.1821,"ARG_OF_PERICENTER":92.2189,"MEAN_ANOMALY":267.896,"EPHEMERIS_TYPE":0,"CLASSIFICATION_TYPE":"U","NORAD_CAT_ID":46576,"ELEMENT_SET_NO":999,"REV_AT_EPOCH":27297,"BSTAR":-0.00010109,"MEAN_MOTION_DOT":-1.786e-5,"MEAN_MOTION_DDOT":0},{"OBJECT_NAME":"STARLINK-1683","OBJECT_ID":"2020-070AY","EPOCH":"2025-09-13T06:23:08.958624","MEAN_MOTION":15.28766514,"ECCENTRICITY":0.000755,"INCLINATION":53.0255,"RA_OF_ASC_NODE":204.1806,"ARG_OF_PERICENTER":71.4306,"MEAN_ANOMALY":288.7512,"EPHEMERIS_TYPE":0,"CLASSIFICATION_TYPE":"U","NORAD_CAT_ID":46578,"ELEMENT_SET_NO":999,"REV_AT_EPOCH":27345,"BSTAR":0.0017597337,"MEAN_MOTION_DOT":0.00049888,"MEAN_MOTION_DDOT":0},{"OBJECT_NAME":"STARLINK-1705","OBJECT_ID":"2020-070AZ","EPOCH":"2025-09-13T05:17:40.233120","MEAN_MOTION":15.42600334,"ECCENTRICITY":0.00047947,"INCLINATION":53.0525,"RA_OF_ASC_NODE":227.2971,"ARG_OF_PERICENTER":71.4169,"MEAN_ANOMALY":288.7356,"EPHEMERIS_TYPE":0,"CLASSIFICATION_TYPE":"U","NORAD_CAT_ID":46579,"ELEMENT_SET_NO":999,"REV_AT_EPOCH":27312,"BSTAR":0.0026131991,"MEAN_MOTION_DOT":0.00116803,"MEAN_MOTION_DDOT":0},{"OBJECT_NAME":"STARLINK-1712","OBJECT_ID":"2020-070BB","EPOCH":"2025-09-13T04:34:12.747648","MEAN_MOTION":15.3584846,"ECCENTRICITY":0.00128048,"INCLINATION":53.0529,"RA_OF_ASC_NODE":222.0491,"ARG_OF_PERICENTER":30.2976,"MEAN_ANOMALY":329.8764,"EPHEMERIS_TYPE":0,"CLASSIFICATION_TYPE":"U","NORAD_CAT_ID":46581,"ELEMENT_SET_NO":999,"REV_AT_EPOCH":27319,"BSTAR":0.0022359584,"MEAN_MOTION_DOT":0.00079778,"MEAN_MOTION_DDOT":0},{"OBJECT_NAME":"STARLINK-1728","OBJECT_ID":"2020-070BC","EPOCH":"2025-09-12T15:53:26.265120","MEAN_MOTION":15.06390847,"ECCENTRICITY":0.00014403,"INCLINATION":53.0538,"RA_OF_ASC_NODE":235.8142,"ARG_OF_PERICENTER":90.237,"MEAN_ANOMALY":269.8784,"EPHEMERIS_TYPE":0,"CLASSIFICATION_TYPE":"U","NORAD_CAT_ID":46582,"ELEMENT_SET_NO":999,"REV_AT_EPOCH":27295,"BSTAR":4.7514642e-5,"MEAN_MOTION_DOT":4.26e-6,"MEAN_MOTION_DDOT":0},{"OBJECT_NAME":"STARLINK-1736","OBJECT_ID":"2020-070BF","EPOCH":"2025-09-12T15:37:33.502944","MEAN_MOTION":15.06397593,"ECCENTRICITY":0.000108,"INCLINATION":53.0528,"RA_OF_ASC_NODE":236.2116,"ARG_OF_PERICENTER":86.8946,"MEAN_ANOMALY":273.2167,"EPHEMERIS_TYPE":0,"CLASSIFICATION_TYPE":"U","NORAD_CAT_ID":46585,"ELEMENT_SET_NO":999,"REV_AT_EPOCH":27294,"BSTAR":8.5259684e-5,"MEAN_MOTION_DOT":9.89e-6,"MEAN_MOTION_DDOT":0},{"OBJECT_NAME":"STARLINK-1746","OBJECT_ID":"2020-070BJ","EPOCH":"2025-09-12T22:04:58.179648","MEAN_MOTION":15.0639283,"ECCENTRICITY":0.00013445,"INCLINATION":53.0529,"RA_OF_ASC_NODE":234.6556,"ARG_OF_PERICENTER":91.1846,"MEAN_ANOMALY":268.9297,"EPHEMERIS_TYPE":0,"CLASSIFICATION_TYPE":"U","NORAD_CAT_ID":46588,"ELEMENT_SET_NO":999,"REV_AT_EPOCH":27299,"BSTAR":3.6502453e-5,"MEAN_MOTION_DOT":2.62e-6,"MEAN_MOTION_DDOT":0},{"OBJECT_NAME":"STARLINK-1716","OBJECT_ID":"2020-073C","EPOCH":"2025-09-13T05:06:17.492544","MEAN_MOTION":15.06399406,"ECCENTRICITY":0.00011753,"INCLINATION":53.055,"RA_OF_ASC_NODE":318.3465,"ARG_OF_PERICENTER":89.6894,"MEAN_ANOMALY":270.4229,"EPHEMERIS_TYPE":0,"CLASSIFICATION_TYPE":"U","NORAD_CAT_ID":46672,"ELEMENT_SET_NO":999,"REV_AT_EPOCH":27038,"BSTAR":0.00021270431,"MEAN_MOTION_DOT":2.888e-5,"MEAN_MOTION_DDOT":0},{"OBJECT_NAME":"STARLINK-1718","OBJECT_ID":"2020-073E","EPOCH":"2025-09-13T04:07:53.052384","MEAN_MOTION":15.06388813,"ECCENTRICITY":0.00011107,"INCLINATION":53.054,"RA_OF_ASC_NODE":318.5302,"ARG_OF_PERICENTER":95.4697,"MEAN_ANOMALY":264.6419,"EPHEMERIS_TYPE":0,"CLASSIFICATION_TYPE":"U","NORAD_CAT_ID":46674,"ELEMENT_SET_NO":999,"REV_AT_EPOCH":27037,"BSTAR":2.2735979e-5,"MEAN_MOTION_DOT":5.7e-7,"MEAN_MOTION_DDOT":0},{"OBJECT_NAME":"STARLINK-1775","OBJECT_ID":"2020-073M","EPOCH":"2025-09-13T05:01:38.081856","MEAN_MOTION":15.06401781,"ECCENTRICITY":0.00015631,"INCLINATION":53.055,"RA_OF_ASC_NODE":333.3597,"ARG_OF_PERICENTER":86.1308,"MEAN_ANOMALY":273.986,"EPHEMERIS_TYPE":0,"CLASSIFICATION_TYPE":"U","NORAD_CAT_ID":46681,"ELEMENT_SET_NO":999,"REV_AT_EPOCH":27016,"BSTAR":-8.671011e-6,"MEAN_MOTION_DOT":-4.11e-6,"MEAN_MOTION_DDOT":0},{"OBJECT_NAME":"STARLINK-1781","OBJECT_ID":"2020-073R","EPOCH":"2025-09-13T05:44:09.146400","MEAN_MOTION":15.06403404,"ECCENTRICITY":0.00012921,"INCLINATION":53.0555,"RA_OF_ASC_NODE":333.494,"ARG_OF_PERICENTER":84.2709,"MEAN_ANOMALY":275.8427,"EPHEMERIS_TYPE":0,"CLASSIFICATION_TYPE":"U","NORAD_CAT_ID":46685,"ELEMENT_SET_NO":999,"REV_AT_EPOCH":27016,"BSTAR":0.0003506127,"MEAN_MOTION_DOT":4.945e-5,"MEAN_MOTION_DDOT":0},{"OBJECT_NAME":"STARLINK-1784","OBJECT_ID":"2020-073T","EPOCH":"2025-09-13T02:45:38.258496","MEAN_MOTION":15.06391448,"ECCENTRICITY":0.00036721,"INCLINATION":53.0543,"RA_OF_ASC_NODE":298.782,"ARG_OF_PERICENTER":87.7202,"MEAN_ANOMALY":272.4207,"EPHEMERIS_TYPE":0,"CLASSIFICATION_TYPE":"U","NORAD_CAT_ID":46687,"ELEMENT_SET_NO":999,"REV_AT_EPOCH":27064,"BSTAR":-5.1559456e-5,"MEAN_MOTION_DOT":-1.05e-5,"MEAN_MOTION_DDOT":0},{"OBJECT_NAME":"STARLINK-1788","OBJECT_ID":"2020-073V","EPOCH":"2025-09-12T22:28:58.620576","MEAN_MOTION":15.06397863,"ECCENTRICITY":0.00013905,"INCLINATION":53.0564,"RA_OF_ASC_NODE":335.2391,"ARG_OF_PERICENTER":92.6903,"MEAN_ANOMALY":267.4245,"EPHEMERIS_TYPE":0,"CLASSIFICATION_TYPE":"U","NORAD_CAT_ID":46689,"ELEMENT_SET_NO":999,"REV_AT_EPOCH":27136,"BSTAR":0.00024180465,"MEAN_MOTION_DOT":3.322e-5,"MEAN_MOTION_DDOT":0},{"OBJECT_NAME":"STARLINK-1789","OBJECT_ID":"2020-073W","EPOCH":"2025-09-13T06:00:02.000160","MEAN_MOTION":15.11048648,"ECCENTRICITY":0.0002144,"INCLINATION":53.0532,"RA_OF_ASC_NODE":308.1567,"ARG_OF_PERICENTER":128.0318,"MEAN_ANOMALY":120.1571,"EPHEMERIS_TYPE":0,"CLASSIFICATION_TYPE":"U","NORAD_CAT_ID":46690,"ELEMENT_SET_NO":999,"REV_AT_EPOCH":584,"BSTAR":0.0040544201,"MEAN_MOTION_DOT":0.00068953,"MEAN_MOTION_DDOT":0},{"OBJECT_NAME":"STARLINK-1790","OBJECT_ID":"2020-073X","EPOCH":"2025-09-13T04:55:39.326592","MEAN_MOTION":15.06398359,"ECCENTRICITY":0.00015412,"INCLINATION":53.0538,"RA_OF_ASC_NODE":318.3792,"ARG_OF_PERICENTER":91.9398,"MEAN_ANOMALY":268.1768,"EPHEMERIS_TYPE":0,"CLASSIFICATION_TYPE":"U","NORAD_CAT_ID":46691,"ELEMENT_SET_NO":999,"REV_AT_EPOCH":27037,"BSTAR":0.00016342284,"MEAN_MOTION_DOT":2.153e-5,"MEAN_MOTION_DDOT":0},{"OBJECT_NAME":"STARLINK-1795","OBJECT_ID":"2020-073AC","EPOCH":"2025-09-12T20:28:46.371936","MEAN_MOTION":15.06399192,"ECCENTRICITY":0.00012832,"INCLINATION":53.054,"RA_OF_ASC_NODE":299.9597,"ARG_OF_PERICENTER":73.798,"MEAN_ANOMALY":286.315,"EPHEMERIS_TYPE":0,"CLASSIFICATION_TYPE":"U","NORAD_CAT_ID":46696,"ELEMENT_SET_NO":999,"REV_AT_EPOCH":27060,"BSTAR":0.00018375577,"MEAN_MOTION_DOT":2.457e-5,"MEAN_MOTION_DDOT":0},{"OBJECT_NAME":"STARLINK-1797","OBJECT_ID":"2020-073AE","EPOCH":"2025-09-13T03:57:23.407200","MEAN_MOTION":15.063977,"ECCENTRICITY":0.00013814,"INCLINATION":53.0564,"RA_OF_ASC_NODE":319.1417,"ARG_OF_PERICENTER":89.3397,"MEAN_ANOMALY":270.775,"EPHEMERIS_TYPE":0,"CLASSIFICATION_TYPE":"U","NORAD_CAT_ID":46698,"ELEMENT_SET_NO":999,"REV_AT_EPOCH":27036,"BSTAR":0.00014500771,"MEAN_MOTION_DOT":1.879e-5,"MEAN_MOTION_DDOT":0},{"OBJECT_NAME":"STARLINK-1799","OBJECT_ID":"2020-073AF","EPOCH":"2025-09-12T21:56:20.588352","MEAN_MOTION":15.06402992,"ECCENTRICITY":0.00010281,"INCLINATION":53.0555,"RA_OF_ASC_NODE":319.6833,"ARG_OF_PERICENTER":95.4847,"MEAN_ANOMALY":264.626,"EPHEMERIS_TYPE":0,"CLASSIFICATION_TYPE":"U","NORAD_CAT_ID":46699,"ELEMENT_SET_NO":999,"REV_AT_EPOCH":27033,"BSTAR":0.00016742589,"MEAN_MOTION_DOT":2.214e-5,"MEAN_MOTION_DDOT":0},{"OBJECT_NAME":"STARLINK-1800","OBJECT_ID":"2020-073AG","EPOCH":"2025-09-12T22:02:19.092192","MEAN_MOTION":15.06405714,"ECCENTRICITY":0.00011259,"INCLINATION":53.0539,"RA_OF_ASC_NODE":334.6609,"ARG_OF_PERICENTER":76.5917,"MEAN_ANOMALY":283.5197,"EPHEMERIS_TYPE":0,"CLASSIFICATION_TYPE":"U","NORAD_CAT_ID":46700,"ELEMENT_SET_NO":999,"REV_AT_EPOCH":27012,"BSTAR":0.00033539593,"MEAN_MOTION_DOT":4.719e-5,"MEAN_MOTION_DDOT":0},{"OBJECT_NAME":"STARLINK-1801","OBJECT_ID":"2020-073AH","EPOCH":"2025-09-12T21:13:52.748256","MEAN_MOTION":15.06400493,"ECCENTRICITY":0.00015654,"INCLINATION":53.0536,"RA_OF_ASC_NODE":319.8156,"ARG_OF_PERICENTER":79.3032,"MEAN_ANOMALY":280.8133,"EPHEMERIS_TYPE":0,"CLASSIFICATION_TYPE":"U","NORAD_CAT_ID":46701,"ELEMENT_SET_NO":999,"REV_AT_EPOCH":27033,"BSTAR":-0.00012199383,"MEAN_MOTION_DOT":-2.098e-5,"MEAN_MOTION_DDOT":0},{"OBJECT_NAME":"STARLINK-1802","OBJECT_ID":"2020-073AJ","EPOCH":"2025-09-12T19:56:55.146912","MEAN_MOTION":15.06402892,"ECCENTRICITY":0.00010477,"INCLINATION":53.0543,"RA_OF_ASC_NODE":300.0557,"ARG_OF_PERICENTER":91.7711,"MEAN_ANOMALY":268.3398,"EPHEMERIS_TYPE":0,"CLASSIFICATION_TYPE":"U","NORAD_CAT_ID":46702,"ELEMENT_SET_NO":999,"REV_AT_EPOCH":27060,"BSTAR":0.00010102309,"MEAN_MOTION_DOT":1.224e-5,"MEAN_MOTION_DDOT":0}]
